[{"OBJECT_NAME":"IRIDIUM 33","OBJECT_ID":"1997-051C","EPOCH":"2026-03-29T04:18:07.893792","MEAN_MOTION":14.35112968,"ECCENTRICITY":0.0006351,"INCLINATION":86.3914,"RA_OF_ASC_NODE":23.5227,"ARG_OF_PERICENTER":215.309,"MEAN_ANOMALY":144.7686,"EPHEMERIS_TYPE":0,"CLASSIFICATION_TYPE":"U","NORAD_CAT_ID":24946,"ELEMENT_SET_NO":999,"REV_AT_EPOCH":49361,"BSTAR":0.00011276,"MEAN_MOTION_DOT":3.41e-6,"MEAN_MOTION_DDOT":0},{"OBJECT_NAME":"IRIDIUM 33 DEB","OBJECT_ID":"1997-051L","EPOCH":"2026-03-29T04:46:29.922816","MEAN_MOTION":14.43524375,"ECCENTRICITY":0.0011747,"INCLINATION":86.406,"RA_OF_ASC_NODE":15.4612,"ARG_OF_PERICENTER":150.5276,"MEAN_ANOMALY":209.6589,"EPHEMERIS_TYPE":0,"CLASSIFICATION_TYPE":"U","NORAD_CAT_ID":33773,"ELEMENT_SET_NO":999,"REV_AT_EPOCH":89883,"BSTAR":0.00036363,"MEAN_MOTION_DOT":1.251e-5,"MEAN_MOTION_DDOT":0},{"OBJECT_NAME":"IRIDIUM 33 DEB","OBJECT_ID":"1997-051N","EPOCH":"2026-03-29T04:53:02.078592","MEAN_MOTION":14.41819003,"ECCENTRICITY":0.0012925,"INCLINATION":86.3686,"RA_OF_ASC_NODE":4.0953,"ARG_OF_PERICENTER":161.3228,"MEAN_ANOMALY":354.9026,"EPHEMERIS_TYPE":0,"CLASSIFICATION_TYPE":"U","NORAD_CAT_ID":33775,"ELEMENT_SET_NO":999,"REV_AT_EPOCH":89674,"BSTAR":0.00051649,"MEAN_MOTION_DOT":1.708e-5,"MEAN_MOTION_DDOT":0},{"OBJECT_NAME":"IRIDIUM 33 DEB","OBJECT_ID":"1997-051P","EPOCH":"2026-03-29T02:19:10.222176","MEAN_MOTION":14.38438734,"ECCENTRICITY":0.0013241,"INCLINATION":86.4062,"RA_OF_ASC_NODE":36.075,"ARG_OF_PERICENTER":200.833,"MEAN_ANOMALY":170.002,"EPHEMERIS_TYPE":0,"CLASSIFICATION_TYPE":"U","NORAD_CAT_ID":33776,"ELEMENT_SET_NO":999,"REV_AT_EPOCH":89611,"BSTAR":0.00027982,"MEAN_MOTION_DOT":8.74e-6,"MEAN_MOTION_DDOT":0},{"OBJECT_NAME":"IRIDIUM 33 DEB","OBJECT_ID":"1997-051Q","EPOCH":"2026-03-29T05:11:59.608896","MEAN_MOTION":14.56430752,"ECCENTRICITY":0.0004566,"INCLINATION":86.3829,"RA_OF_ASC_NODE":348.8684,"ARG_OF_PERICENTER":258.4119,"MEAN_ANOMALY":101.6576,"EPHEMERIS_TYPE":0,"CLASSIFICATION_TYPE":"U","NORAD_CAT_ID":33777,"ELEMENT_SET_NO":999,"REV_AT_EPOCH":90083,"BSTAR":0.00067699,"MEAN_MOTION_DOT":3.026e-5,"MEAN_MOTION_DDOT":0},{"OBJECT_NAME":"IRIDIUM 33 DEB","OBJECT_ID":"1997-051T","EPOCH":"2026-03-29T05:12:13.128768","MEAN_MOTION":14.42526153,"ECCENTRICITY":0.001104,"INCLINATION":86.3454,"RA_OF_ASC_NODE":344.4043,"ARG_OF_PERICENTER":169.1187,"MEAN_ANOMALY":308.7315,"EPHEMERIS_TYPE":0,"CLASSIFICATION_TYPE":"U","NORAD_CAT_ID":33850,"ELEMENT_SET_NO":999,"REV_AT_EPOCH":89687,"BSTAR":0.00041631,"MEAN_MOTION_DOT":1.4e-5,"MEAN_MOTION_DDOT":0},{"OBJECT_NAME":"IRIDIUM 33 DEB","OBJECT_ID":"1997-051W","EPOCH":"2026-03-29T01:20:14.818848","MEAN_MOTION":13.99658536,"ECCENTRICITY":0.0206731,"INCLINATION":85.9975,"RA_OF_ASC_NODE":303.186,"ARG_OF_PERICENTER":270.6625,"MEAN_ANOMALY":251.4379,"EPHEMERIS_TYPE":0,"CLASSIFICATION_TYPE":"U","NORAD_CAT_ID":33853,"ELEMENT_SET_NO":999,"REV_AT_EPOCH":86832,"BSTAR":0.0010296,"MEAN_MOTION_DOT":1.824e-5,"MEAN_MOTION_DDOT":0},{"OBJECT_NAME":"IRIDIUM 33 DEB","OBJECT_ID":"1997-051AD","EPOCH":"2026-03-28T23:04:40.906848","MEAN_MOTION":14.6934992,"ECCENTRICITY":0.0008902,"INCLINATION":86.3859,"RA_OF_ASC_NODE":340.1626,"ARG_OF_PERICENTER":352.292,"MEAN_ANOMALY":25.9761,"EPHEMERIS_TYPE":0,"CLASSIFICATION_TYPE":"U","NORAD_CAT_ID":33860,"ELEMENT_SET_NO":999,"REV_AT_EPOCH":90281,"BSTAR":0.0012114,"MEAN_MOTION_DOT":7.183e-5,"MEAN_MOTION_DDOT":0},{"OBJECT_NAME":"IRIDIUM 33 DEB","OBJECT_ID":"1997-051AF","EPOCH":"2026-03-29T04:57:25.388640","MEAN_MOTION":14.72312661,"ECCENTRICITY":0.0052164,"INCLINATION":86.4129,"RA_OF_ASC_NODE":350.4905,"ARG_OF_PERICENTER":59.1383,"MEAN_ANOMALY":93.1591,"EPHEMERIS_TYPE":0,"CLASSIFICATION_TYPE":"U","NORAD_CAT_ID":33862,"ELEMENT_SET_NO":999,"REV_AT_EPOCH":90388,"BSTAR":0.0024645,"MEAN_MOTION_DOT":0.00015959,"MEAN_MOTION_DDOT":0},{"OBJECT_NAME":"IRIDIUM 33 DEB","OBJECT_ID":"1997-051AK","EPOCH":"2026-03-28T21:47:40.167456","MEAN_MOTION":14.25846101,"ECCENTRICITY":0.0111093,"INCLINATION":86.3002,"RA_OF_ASC_NODE":48.0772,"ARG_OF_PERICENTER":179.2501,"MEAN_ANOMALY":235.6491,"EPHEMERIS_TYPE":0,"CLASSIFICATION_TYPE":"U","NORAD_CAT_ID":33866,"ELEMENT_SET_NO":999,"REV_AT_EPOCH":88323,"BSTAR":0.0010823,"MEAN_MOTION_DOT":2.765e-5,"MEAN_MOTION_DDOT":0},{"OBJECT_NAME":"IRIDIUM 33 DEB","OBJECT_ID":"1997-051AP","EPOCH":"2026-03-28T19:53:31.807968","MEAN_MOTION":14.46502414,"ECCENTRICITY":0.00198227,"INCLINATION":86.3796,"RA_OF_ASC_NODE":12.7606,"ARG_OF_PERICENTER":184.0709,"MEAN_ANOMALY":234.0692,"EPHEMERIS_TYPE":0,"CLASSIFICATION_TYPE":"U","NORAD_CAT_ID":33870,"ELEMENT_SET_NO":999,"REV_AT_EPOCH":89670,"BSTAR":0.00072502208,"MEAN_MOTION_DOT":2.634e-5,"MEAN_MOTION_DDOT":0},{"OBJECT_NAME":"IRIDIUM 33 DEB","OBJECT_ID":"1997-051BA","EPOCH":"2026-03-28T16:53:50.218944","MEAN_MOTION":14.5963443,"ECCENTRICITY":0.00531392,"INCLINATION":86.3832,"RA_OF_ASC_NODE":60.5562,"ARG_OF_PERICENTER":172.2135,"MEAN_ANOMALY":4.2929,"EPHEMERIS_TYPE":0,"CLASSIFICATION_TYPE":"U","NORAD_CAT_ID":33881,"ELEMENT_SET_NO":999,"REV_AT_EPOCH":89044,"BSTAR":0.0037196971,"MEAN_MOTION_DOT":0.00018106,"MEAN_MOTION_DDOT":0},{"OBJECT_NAME":"IRIDIUM 33 DEB","OBJECT_ID":"1997-051BD","EPOCH":"2026-03-29T02:14:24.418752","MEAN_MOTION":14.80879574,"ECCENTRICITY":0.0010051,"INCLINATION":86.3695,"RA_OF_ASC_NODE":321.7031,"ARG_OF_PERICENTER":312.9464,"MEAN_ANOMALY":199.7642,"EPHEMERIS_TYPE":0,"CLASSIFICATION_TYPE":"U","NORAD_CAT_ID":33884,"ELEMENT_SET_NO":999,"REV_AT_EPOCH":90419,"BSTAR":0.0019943,"MEAN_MOTION_DOT":0.00015455,"MEAN_MOTION_DDOT":0},{"OBJECT_NAME":"IRIDIUM 33 DEB","OBJECT_ID":"1997-051BF","EPOCH":"2026-03-29T05:09:44.802432","MEAN_MOTION":14.36193659,"ECCENTRICITY":0.0011798,"INCLINATION":86.3874,"RA_OF_ASC_NODE":22.3922,"ARG_OF_PERICENTER":257.4137,"MEAN_ANOMALY":223.1112,"EPHEMERIS_TYPE":0,"CLASSIFICATION_TYPE":"U","NORAD_CAT_ID":33886,"ELEMENT_SET_NO":999,"REV_AT_EPOCH":89580,"BSTAR":0.00022525,"MEAN_MOTION_DOT":6.76e-6,"MEAN_MOTION_DDOT":0},{"OBJECT_NAME":"IRIDIUM 33 DEB","OBJECT_ID":"1997-051BG","EPOCH":"2026-03-29T01:52:30.883008","MEAN_MOTION":14.37339673,"ECCENTRICITY":0.0004173,"INCLINATION":86.3041,"RA_OF_ASC_NODE":317.595,"ARG_OF_PERICENTER":245.6142,"MEAN_ANOMALY":267.7288,"EPHEMERIS_TYPE":0,"CLASSIFICATION_TYPE":"U","NORAD_CAT_ID":33887,"ELEMENT_SET_NO":999,"REV_AT_EPOCH":89692,"BSTAR":0.00012801,"MEAN_MOTION_DOT":4.02e-6,"MEAN_MOTION_DDOT":0},{"OBJECT_NAME":"IRIDIUM 33 DEB","OBJECT_ID":"1997-051BN","EPOCH":"2026-03-28T17:59:49.054848","MEAN_MOTION":14.56585583,"ECCENTRICITY":0.0018624,"INCLINATION":86.3894,"RA_OF_ASC_NODE":7.7266,"ARG_OF_PERICENTER":97.4545,"MEAN_ANOMALY":291.9784,"EPHEMERIS_TYPE":0,"CLASSIFICATION_TYPE":"U","NORAD_CAT_ID":33953,"ELEMENT_SET_NO":999,"REV_AT_EPOCH":89846,"BSTAR":0.00111,"MEAN_MOTION_DOT":4.977e-5,"MEAN_MOTION_DDOT":0}]
