IRIDIUM 33              
1 24946U 97051C   26088.17925803  .00000341  00000+0  11276-3 0  9993
2 24946  86.3914  23.5227 0006351 215.3090 144.7686 14.35112968493613
IRIDIUM 33 DEB          
1 33773U 97051L   26088.19895744  .00001251  00000+0  36363-3 0  9998
2 33773  86.4060  15.4612 0011747 150.5276 209.6589 14.43524375898837
IRIDIUM 33 DEB          
1 33775U 97051N   26088.20349628  .00001708  00000+0  51649-3 0  9998
2 33775  86.3686   4.0953 0012925 161.3228 354.9026 14.41819003896741
IRIDIUM 33 DEB          
1 33776U 97051P   26088.09664609  .00000874  00000+0  27982-3 0  9991
2 33776  86.4062  36.0750 0013241 200.8330 170.0020 14.38438734896112
IRIDIUM 33 DEB          
1 33777U 97051Q   26088.21666214  .00003026  00000+0  67699-3 0  9991
2 33777  86.3829 348.8684 0004566 258.4119 101.6576 14.56430752900830
IRIDIUM 33 DEB          
1 33850U 97051T   26088.21681862  .00001400  00000+0  41631-3 0  9991
2 33850  86.3454 344.4043 0011040 169.1187 308.7315 14.42526153896870
IRIDIUM 33 DEB          
1 33853U 97051W   26088.05572707  .00001824  00000+0  10296-2 0  9995
2 33853  85.9975 303.1860 0206731 270.6625 251.4379 13.99658536868328
IRIDIUM 33 DEB          
1 33860U 97051AD  26087.96158457  .00007183  00000+0  12114-2 0  9999
2 33860  86.3859 340.1626 0008902 352.2920  25.9761 14.69349920902812
IRIDIUM 33 DEB          
1 33862U 97051AF  26088.20654385  .00015959  00000+0  24645-2 0  9992
2 33862  86.4129 350.4905 0052164  59.1383  93.1591 14.72312661903886
IRIDIUM 33 DEB          
1 33866U 97051AK  26087.90810379  .00002765  00000+0  10823-2 0  9993
2 33866  86.3002  48.0772 0111093 179.2501 235.6491 14.25846101883231
IRIDIUM 33 DEB          
1 33870U 97051AP  26087.82884037  .00002634  00000+0  72502-3 0  9999
2 33870  86.3796  12.7606 0019822 184.0709 234.0692 14.46502414896702
IRIDIUM 33 DEB          
1 33881U 97051BA  26087.70405346  .00018106  00000+0  37197-2 0  9991
2 33881  86.3832  60.5562 0053139 172.2135   4.2929 14.59634430890441
IRIDIUM 33 DEB          
1 33884U 97051BD  26088.09333818  .00015455  00000+0  19943-2 0  9994
2 33884  86.3695 321.7031 0010051 312.9464 199.7642 14.80879574904192
IRIDIUM 33 DEB          
1 33886U 97051BF  26088.21510188  .00000676  00000+0  22525-3 0  9997
2 33886  86.3874  22.3922 0011798 257.4137 223.1112 14.36193659895800
IRIDIUM 33 DEB          
1 33887U 97051BG  26088.07813522  .00000402  00000+0  12801-3 0  9993
2 33887  86.3041 317.5950 0004173 245.6142 267.7288 14.37339673896922
IRIDIUM 33 DEB          
1 33953U 97051BN  26087.74987332  .00004977  00000+0  11100-2 0  9992
2 33953  86.3894   7.7266 0018624  97.4545 291.9784 14.56585583898461
